NORAD_CAT_ID,OBJECT_NAME,OBJECT_TYPE,EPOCH,MEAN_MOTION,ECCENTRICITY,INCLINATION,RA_OF_ASC_NODE,ARG_OF_PERICENTER,MEAN_ANOMALY,BSTAR,MEAN_MOTION_DOT,MEAN_MOTION_DDOT,TLE_LINE0,TLE_LINE1,TLE_LINE2,SEMIMAJOR_AXIS,PERIOD,APOGEE,PERIGEE,DECAYED
50846.0,STARLINK-3308,PAYLOAD,2023-05-12 17:14:21,15.08838807,0.000119,53.216,131.9313,86.7029,273.4099,4.0519e-05,3.57e-06,0.0,0 STARLINK-3308,1 50846U 22001AV  23132.71830620  .00000357  00000-0  40519-4 0  9994,2 50846  53.2160 131.9313 0001190  86.7029 273.4099 15.08838807 75752,6917.884,95.438,540.572,538.926,0.0
50846.0,STARLINK-3308,PAYLOAD,2023-05-13 05:57:26,15.08837645,0.0001188,53.2159,129.552,88.367,271.7458,7.4795e-05,9.03e-06,0.0,0 STARLINK-3308,1 50846U 22001AV  23133.24822718  .00000903  00000-0  74795-4 0  9992,2 50846  53.2159 129.5520 0001188  88.3670 271.7458 15.08837645 74556,6917.888,95.438,540.574,538.931,0.0
50846.0,STARLINK-3308,PAYLOAD,2023-05-13 17:05:08,15.08839912,0.0001193,53.2161,127.4704,87.8504,272.2624,6.545e-05,7.54e-06,0.0,0 STARLINK-3308,1 50846U 22001AV  23133.71190590  .00000754  00000-0  65450-4 0  9992,2 50846  53.2161 127.4704 0001193  87.8504 272.2624 15.08839912 74624,6917.881,95.438,540.571,538.92,0.0
50846.0,STARLINK-3308,PAYLOAD,2023-05-14 05:48:13,15.088427,0.0001177,53.2161,125.0911,88.8506,271.2621,8.4572e-05,1.058e-05,0.0,0 STARLINK-3308,1 50846U 22001AV  23134.24182347  .00001058  00000-0  84572-4 0  9996,2 50846  53.2161 125.0911 0001177  88.8506 271.2621 15.08842700 75988,6917.872,95.437,540.551,538.923,0.0
50846.0,STARLINK-3308,PAYLOAD,2023-05-14 16:55:55,15.08842126,0.0001173,53.2164,123.0095,88.3175,271.7952,8.0304e-05,9.91e-06,0.0,0 STARLINK-3308,1 50846U 22001AV  23134.70550296  .00000991  00000-0  80304-4 0  9993,2 50846  53.2164 123.0095 0001173  88.3175 271.7952 15.08842126 74775,6917.874,95.437,540.55,538.927,0.0
50846.0,STARLINK-3308,PAYLOAD,2023-05-15 05:39:00,15.08841055,0.0001218,53.2162,120.6317,87.2139,272.8992,7.0599e-05,8.36e-06,0.0,0 STARLINK-3308,1 50846U 22001AV  23135.23542438  .00000836  00000-0  70599-4 0  9994,2 50846  53.2162 120.6317 0001218  87.2139 272.8992 15.08841055 74856,6917.877,95.437,540.585,538.9,0.0
50846.0,STARLINK-3308,PAYLOAD,2023-05-16 05:29:47,15.08840019,0.0001278,53.2168,116.1698,94.9535,265.1603,3.5766e-06,-2.31e-06,0.0,0 STARLINK-3308,1 50846U 22001AV  23136.22902647 -.00000231  00000-0  35766-5 0  9994,2 50846  53.2168 116.1698 0001278  94.9535 265.1603 15.08840019 76287,6917.88,95.438,540.629,538.861,0.0
50846.0,STARLINK-3308,PAYLOAD,2023-05-16 08:40:34,15.08838194,0.0001287,53.217,115.5756,95.2251,264.8888,8.0981e-06,-1.59e-06,0.0,0 STARLINK-3308,1 50846U 22001AV  23136.36150752 -.00000159  00000-0  80981-5 0  9999,2 50846  53.2170 115.5756 0001287  95.2251 264.8888 15.08838194 75020,6917.886,95.438,540.641,538.861,0.0
50846.0,STARLINK-3308,PAYLOAD,2023-05-17 05:20:35,15.08837874,0.00012,53.2168,111.711,97.0993,263.0135,1.9746e-05,2.6e-07,0.0,0 STARLINK-3308,1 50846U 22001AV  23137.22262792  .00000026  00000-0  19746-4 0  9995,2 50846  53.2168 111.7110 0001200  97.0993 263.0135 15.08837874 75151,6917.887,95.438,540.582,538.922,0.0
50846.0,STARLINK-3308,PAYLOAD,2023-05-18 02:00:36,15.08831212,0.0001234,53.2172,107.8458,103.6032,256.5098,2.1545e-05,5.5e-07,0.0,0 STARLINK-3308,1 50846U 22001AV  23138.08375471  .00000055  00000-0  21545-4 0  9991,2 50846  53.2172 107.8458 0001234 103.6032 256.5098 15.08831212 76563,6917.907,95.438,540.626,538.919,0.0
50846.0,STARLINK-3308,PAYLOAD,2023-05-18 06:46:45,15.08832916,0.0001136,53.2171,106.9534,93.7904,266.3218,2.4627e-05,1.04e-06,0.0,0 STARLINK-3308,1 50846U 22001AV  23138.28247454  .00000104  00000-0  24627-4 0  9991,2 50846  53.2171 106.9534 0001136  93.7904 266.3218 15.08832916 75312,6917.902,95.438,540.553,538.981,0.0
50846.0,STARLINK-3308,PAYLOAD,2023-05-18 22:40:37,15.08813584,0.0001216,53.2171,103.9794,92.3961,267.7171,0.00035034,5.288e-05,0.0,0 STARLINK-3308,1 50846U 22001AV  23138.94487332  .00005288  00000-0  35034-3 0  9996,2 50846  53.2171 103.9794 0001216  92.3961 267.7171 15.08813584 75418,6917.961,95.439,540.667,538.985,0.0
50846.0,STARLINK-3308,PAYLOAD,2023-05-19 03:26:46,15.08846054,0.0001065,53.2171,103.0872,92.4079,267.7035,2.1165e-05,4.9e-07,0.0,0 STARLINK-3308,1 50846U 22001AV  23139.14358901  .00000049  00000-0  21165-4 0  9999,2 50846  53.2171 103.0872 0001065  92.4079 267.7035 15.08846054 76721,6917.862,95.437,540.464,538.99,0.0
50846.0,STARLINK-3308,PAYLOAD,2023-05-19 06:37:32,15.08843495,0.0001094,53.2171,102.4924,89.5116,270.6001,8.7378e-05,1.103e-05,0.0,0 STARLINK-3308,1 50846U 22001AV  23139.27606802  .00001103  00000-0  87378-4 0  9999,2 50846  53.2171 102.4924 0001094  89.5116 270.6001 15.08843495 75465,6917.87,95.437,540.492,538.978,0.0
50846.0,STARLINK-3308,PAYLOAD,2023-05-20 04:52:56,15.08839951,0.0001273,53.2178,98.329,93.5921,266.5217,0.00011512,1.545e-05,0.0,0 STARLINK-3308,1 50846U 22001AV  23140.20343142  .00001545  00000-0  11512-3 0  9995,2 50846  53.2178  98.3290 0001273  93.5921 266.5217 15.08839951 76881,6917.881,95.438,540.626,538.865,0.0
50846.0,STARLINK-3308,PAYLOAD,2023-05-20 06:28:19,15.08841024,0.0001229,53.2174,98.0319,94.3909,265.7223,0.00014501,2.021e-05,0.0,0 STARLINK-3308,1 50846U 22001AV  23140.26966965  .00002021  00000-0  14501-3 0  9996,2 50846  53.2174  98.0319 0001229  94.3909 265.7223 15.08841024 75614,6917.877,95.437,540.592,538.892,0.0
50846.0,STARLINK-3308,PAYLOAD,2023-05-21 03:08:19,15.08852905,0.0001029,53.2172,94.1653,85.7452,274.3658,6.7944e-05,7.94e-06,0.0,0 STARLINK-3308,1 50846U 22001AV  23141.13078175  .00000794  00000-0  67944-4 0  9995,2 50846  53.2172  94.1653 0001029  85.7452 274.3658 15.08852905 77020,6917.841,95.437,540.418,538.994,0.0
50846.0,STARLINK-3308,PAYLOAD,2023-05-21 20:37:35,15.08839203,0.0001369,53.2177,90.8942,88.4892,271.6257,-8.5291e-06,-4.24e-06,0.0,0 STARLINK-3308,1 50846U 22001AV  23141.85943349 -.00000424  00000-0 -85291-5 0  9996,2 50846  53.2177  90.8942 0001369  88.4892 271.6257 15.08839203 75854,6917.883,95.438,540.695,538.801,0.0
50846.0,STARLINK-3308,PAYLOAD,2023-05-22 02:59:07,15.08838387,0.0001433,53.218,89.7045,93.1849,266.9307,-1.4679e-05,-5.22e-06,0.0,0 STARLINK-3308,1 50846U 22001AV  23142.12439410 -.00000522  00000-0 -14679-4 0  9996,2 50846  53.2180  89.7045 0001433  93.1849 266.9307 15.08838387 77178,6917.885,95.438,540.742,538.759,0.0
50846.0,STARLINK-3308,PAYLOAD,2023-05-22 06:09:54,15.08836105,0.0001459,53.2187,89.109,94.2975,265.8183,-3.0513e-05,-7.73e-06,0.0,0 STARLINK-3308,1 50846U 22001AV  23142.25687646 -.00000773  00000-0 -30513-4 0  9999,2 50846  53.2187  89.1090 0001459  94.2975 265.8183 15.08836105 75915,6917.892,95.438,540.767,538.748,0.0
50846.0,STARLINK-3308,PAYLOAD,2023-05-23 01:14:30,15.08849588,0.0001259,53.2185,85.5414,94.0425,266.0711,2.1037e-05,4.7e-07,0.0,0 STARLINK-3308,1 50846U 22001AV  23143.05174547  .00000047  00000-0  21037-4 0  9992,2 50846  53.2185  85.5414 0001259  94.0425 266.0711 15.08849588 77314,6917.851,95.437,540.587,538.845,0.0
50846.0,STARLINK-3308,PAYLOAD,2023-05-23 06:00:39,15.08853135,0.0001237,53.2181,84.6488,101.2335,258.8796,6.6769e-05,7.75e-06,0.0,0 STARLINK-3308,1 50846U 22001AV  23143.25046093  .00000775  00000-0  66769-4 0  9997,2 50846  53.2181  84.6488 0001237 101.2335 258.8796 15.08853135 76064,6917.84,95.437,540.561,538.85,0.0
50846.0,STARLINK-3308,PAYLOAD,2023-05-24 02:40:42,15.08832261,0.0001293,53.2165,80.7803,96.26,263.8539,5.008e-05,5.09e-06,0.0,0 STARLINK-3308,1 50846U 22001AV  23144.11159834  .00000509  00000-0  50080-4 0  9995,2 50846  53.2165  80.7803 0001293  96.2600 263.8539 15.08832261 77478,6917.904,95.438,540.664,538.875,0.0
50846.0,STARLINK-3308,PAYLOAD,2023-05-24 05:51:28,15.08829941,0.0001204,53.2184,80.1897,90.9143,269.1987,5.8639e-05,6.45e-06,0.0,0 STARLINK-3308,1 50846U 22001AV  23144.24408165  .00000645  00000-0  58639-4 0  9992,2 50846  53.2184  80.1897 0001204  90.9143 269.1987 15.08829941 76219,6917.911,95.438,540.609,538.943,0.0
50846.0,STARLINK-3308,PAYLOAD,2023-05-26 00:46:53,15.08836432,0.0001202,53.2177,72.1637,92.2873,267.8257,0.00011231,1.5e-05,0.0,0 STARLINK-3308,1 50846U 22001AV  23146.03256138  .00001500  00000-0  11231-3 0  9999,2 50846  53.2177  72.1637 0001202  92.2873 267.8257 15.08836432 77766,6917.891,95.438,540.588,538.925,0.0
50846.0,STARLINK-3308,PAYLOAD,2023-05-27 03:48:27,15.08830753,0.0001171,53.2176,67.1058,78.4347,281.6776,-7.7187e-05,-1.516e-05,0.0,0 STARLINK-3308,1 50846U 22001AV  23147.15865487 -.00001516  00000-0 -77187-4 0  9998,2 50846  53.2176  67.1058 0001171  78.4347 281.6776 15.08830753 77932,6917.909,95.438,540.584,538.964,0.0
50846.0,STARLINK-3308,PAYLOAD,2023-05-27 11:45:23,15.08830666,0.0001027,53.2173,65.6244,95.3763,264.7346,5.1316e-05,5.29e-06,0.0,0 STARLINK-3308,1 50846U 22001AV  23147.48985270  .00000529  00000-0  51316-4 0  9994,2 50846  53.2173  65.6244 0001027  95.3763 264.7346 15.08830666 76701,6917.909,95.438,540.484,539.063,0.0
50846.0,STARLINK-3308,PAYLOAD,2023-05-28 02:03:50,15.08840501,0.0001041,53.2176,62.9487,85.3961,274.715,0.00012952,1.774e-05,0.0,0 STARLINK-3308,1 50846U 22001AV  23148.08600557  .00001774  00000-0  12952-3 0  9998,2 50846  53.2176  62.9487 0001041  85.3961 274.7150 15.08840501 78073,6917.879,95.438,540.464,539.024,0.0
50846.0,STARLINK-3308,PAYLOAD,2023-05-29 00:19:14,15.08848599,9.74e-05,53.2184,58.7817,90.4198,269.6906,0.00022239,3.254e-05,0.0,0 STARLINK-3308,1 50846U 22001AV  23149.01335760  .00003254  00000-0  22239-3 0  9997,2 50846  53.2184  58.7817 0000974  90.4198 269.6906 15.08848599 78218,6917.854,95.437,540.393,539.045,0.0
50846.0,STARLINK-3308,PAYLOAD,2023-05-29 20:59:15,15.08840218,0.0001055,53.218,54.9164,84.5792,275.532,1.4786e-05,-5.2e-07,0.0,0 STARLINK-3308,1 50846U 22001AV  23149.87448913 -.00000052  00000-0  14786-4 0  9999,2 50846  53.2180  54.9164 0001055  84.5792 275.5320 15.08840218 77060,6917.88,95.438,540.475,539.015,0.0
